[{"OBJECT_NAME":"DUBAISAT-1","OBJECT_ID":"2009-041B","EPOCH":"2026-03-09T21:53:38.052672","MEAN_MOTION":14.74907438,"ECCENTRICITY":0.00110546,"INCLINATION":97.9873,"RA_OF_ASC_NODE":203.3619,"ARG_OF_PERICENTER":35.633,"MEAN_ANOMALY":324.5615,"EPHEMERIS_TYPE":0,"CLASSIFICATION_TYPE":"U","NORAD_CAT_ID":35682,"ELEMENT_SET_NO":999,"REV_AT_EPOCH":89046,"BSTAR":0.00024928583,"MEAN_MOTION_DOT":1.624e-5,"MEAN_MOTION_DDOT":0},{"OBJECT_NAME":"GAOFEN-1","OBJECT_ID":"2013-018A","EPOCH":"2026-03-09T23:41:10.925664","MEAN_MOTION":14.76548234,"ECCENTRICITY":0.00163762,"INCLINATION":97.917,"RA_OF_ASC_NODE":143.0376,"ARG_OF_PERICENTER":223.3024,"MEAN_ANOMALY":136.69,"EPHEMERIS_TYPE":0,"CLASSIFICATION_TYPE":"U","NORAD_CAT_ID":39150,"ELEMENT_SET_NO":999,"REV_AT_EPOCH":69360,"BSTAR":0.00016125455,"MEAN_MOTION_DOT":1.076e-5,"MEAN_MOTION_DDOT":0}]
